[{"OBJECT_NAME":"SHIYAN-21 (SY-21)","OBJECT_ID":"2022-172A","EPOCH":"2026-03-09T23:40:42.191616","MEAN_MOTION":15.28197132,"ECCENTRICITY":0.00206059,"INCLINATION":35.9768,"RA_OF_ASC_NODE":332.6944,"ARG_OF_PERICENTER":79.3933,"MEAN_ANOMALY":280.9121,"EPHEMERIS_TYPE":0,"CLASSIFICATION_TYPE":"U","NORAD_CAT_ID":54752,"ELEMENT_SET_NO":999,"REV_AT_EPOCH":18050,"BSTAR":0.00041186164,"MEAN_MOTION_DOT":0.00011616,"MEAN_MOTION_DDOT":0},{"OBJECT_NAME":"STARLINK-31094","OBJECT_ID":"2023-200E","EPOCH":"2026-03-09T14:55:33.976128","MEAN_MOTION":15.26740016,"ECCENTRICITY":0.00013941,"INCLINATION":43.0018,"RA_OF_ASC_NODE":168.9694,"ARG_OF_PERICENTER":266.7261,"MEAN_ANOMALY":93.3431,"EPHEMERIS_TYPE":0,"CLASSIFICATION_TYPE":"U","NORAD_CAT_ID":58593,"ELEMENT_SET_NO":999,"REV_AT_EPOCH":12360,"BSTAR":3.2519584e-5,"MEAN_MOTION_DOT":6.13e-6,"MEAN_MOTION_DDOT":0}]
